SL-14 R/B               
1 21423U 91042B   25340.63675707  .00000862  00000+0  10619-3 0  9998
2 21423  82.4919 307.4464 0016899 181.6134 178.5028 14.81730223839295
ERS-1                   
1 21574U 91050A   25340.61958651  .00000608  00000+0  20905-3 0  9991
2 21574  98.7906 351.5213 0032861 117.5941 242.8589 14.39357363802347
ARIANE 40 R/B           
1 21610U 91050F   25340.61436705  .00000739  00000+0  23405-3 0  9996
2 21610  98.2173  31.2657 0003168  18.5223 341.6082 14.42805760805571
INTERCOSMOS 25          
1 21819U 91086A   25340.52589722  .00003109  00000+0  61730-3 0  9991
2 21819  82.6071   6.3334 1486877 317.8003  31.7440 12.11697468485404
SL-8 R/B                
1 21876U 92008B   25340.44429435  .00000190  00000+0  17988-3 0  9997
2 21876  82.9263 337.1297 0035550  37.0288 116.5523 13.75957033696595
SL-8 R/B                
1 21938U 92020B   25340.65758133  .00000119  00000+0  10778-3 0  9994
2 21938  82.9312 222.8336 0028512 195.3290 223.4676 13.75525431688348
USA 81                  
1 21949U 92023A   25340.60693159  .00000335  00000+0  11684-3 0  9997
2 21949  85.0086 185.1131 0001668  62.3790 297.7572 14.32323670 81461
COSMOS 2219             
1 22219U 92076A   25340.64103213 -.00000134  00000+0 -45322-4 0  9993
2 22219  71.0589 212.5816 0018946 335.0833  24.9372 14.14063206705226
SL-16 R/B               
1 22220U 92076B   25340.58500058 -.00000079  00000+0 -15624-4 0  9996
2 22220  71.0014  24.4971 0015009 242.5410 229.9604 14.16841593708642
COSMOS 2221             
1 22236U 92080A   25340.59631878  .00003108  00000+0  27625-3 0  9991
2 22236  82.5040   8.2058 0015617 140.7443 219.4915 14.95725947766870
SL-16 R/B               
1 22285U 92093B   25340.59570095  .00000091  00000+0  71108-4 0  9996
2 22285  71.0202 199.6933 0002024  91.0409 269.0946 14.15426000699984
COSMOS 2228             
1 22286U 92094A   25340.60648403  .00003886  00000+0  33747-3 0  9990
2 22286  82.5173 326.4029 0016288 253.8567 106.0863 14.96685624762139
